SWAS                    
1 25560U 98071A   26068.53487068  .00004636  00000+0  29986-3 0  9991
2 25560  69.8952 124.3662 0004099  14.3215 345.8065 15.08888192482231
STARLINK-3801           
1 52356U 22045AB  26068.67789743  .00000793  00000+0  67932-4 0  9996
2 52356  53.2178 199.2038 0001211  93.6866 266.4265 15.08835973215787
