[{"OBJECT_NAME":"SWAS","OBJECT_ID":"1998-071A","EPOCH":"2026-03-09T12:50:12.826752","MEAN_MOTION":15.08888192,"ECCENTRICITY":0.00040991,"INCLINATION":69.8952,"RA_OF_ASC_NODE":124.3662,"ARG_OF_PERICENTER":14.3215,"MEAN_ANOMALY":345.8065,"EPHEMERIS_TYPE":0,"CLASSIFICATION_TYPE":"U","NORAD_CAT_ID":25560,"ELEMENT_SET_NO":999,"REV_AT_EPOCH":48223,"BSTAR":0.00029986322,"MEAN_MOTION_DOT":4.636e-5,"MEAN_MOTION_DDOT":0},{"OBJECT_NAME":"STARLINK-3801","OBJECT_ID":"2022-045AB","EPOCH":"2026-03-09T16:16:10.338816","MEAN_MOTION":15.08835974,"ECCENTRICITY":0.00012115,"INCLINATION":53.2178,"RA_OF_ASC_NODE":199.2038,"ARG_OF_PERICENTER":93.6866,"MEAN_ANOMALY":266.4265,"EPHEMERIS_TYPE":0,"CLASSIFICATION_TYPE":"U","NORAD_CAT_ID":52356,"ELEMENT_SET_NO":999,"REV_AT_EPOCH":21578,"BSTAR":6.7932112e-5,"MEAN_MOTION_DOT":7.93e-6,"MEAN_MOTION_DDOT":0}]
